[{"OBJECT_NAME":"STARLINK-31857","OBJECT_ID":"2024-097J","EPOCH":"2026-03-08T23:42:56.516832","MEAN_MOTION":15.27571569,"ECCENTRICITY":0.00014852,"INCLINATION":43.001,"RA_OF_ASC_NODE":277.9601,"ARG_OF_PERICENTER":256.6613,"MEAN_ANOMALY":103.4073,"EPHEMERIS_TYPE":0,"CLASSIFICATION_TYPE":"U","NORAD_CAT_ID":59843,"ELEMENT_SET_NO":999,"REV_AT_EPOCH":10181,"BSTAR":-2.3672732e-5,"MEAN_MOTION_DOT":-9.13e-6,"MEAN_MOTION_DDOT":0},{"OBJECT_NAME":"GEOSCAN 5 (RS92S5)","OBJECT_ID":"2025-155R","EPOCH":"2026-03-09T22:01:07.273920","MEAN_MOTION":15.30265233,"ECCENTRICITY":0.00070849,"INCLINATION":97.4462,"RA_OF_ASC_NODE":37.7456,"ARG_OF_PERICENTER":154.5846,"MEAN_ANOMALY":205.5745,"EPHEMERIS_TYPE":0,"CLASSIFICATION_TYPE":"U","NORAD_CAT_ID":64891,"ELEMENT_SET_NO":999,"REV_AT_EPOCH":6562,"BSTAR":0.00068639307,"MEAN_MOTION_DOT":0.00020065,"MEAN_MOTION_DDOT":0}]
